OBJECT_NAME,OBJECT_ID,EPOCH,MEAN_MOTION,ECCENTRICITY,INCLINATION,RA_OF_ASC_NODE,ARG_OF_PERICENTER,MEAN_ANOMALY,EPHEMERIS_TYPE,CLASSIFICATION_TYPE,NORAD_CAT_ID,ELEMENT_SET_NO,REV_AT_EPOCH,BSTAR,MEAN_MOTION_DOT,MEAN_MOTION_DDOT
INTELSAT 902 (IS-902),2001-039A,2026-07-20T13:12:54.048384,1.00273120,.00043269,6.1979,71.3707,47.4356,327.6434,0,U,26900,999,9103,0,-.288E-5,0
INTELSAT 904 (IS-904),2002-007A,2026-07-20T09:33:26.181216,1.00273916,.00052136,7.0008,68.7831,27.6483,313.6153,0,U,27380,999,5209,0,-.231E-5,0
DIRECTV 5 (TEMPO 1),2002-023A,2026-07-20T14:19:02.669088,1.00271834,.00030886,4.9610,74.8924,42.7863,285.3386,0,U,27426,999,8845,0,-.61E-6,0
INTELSAT 905 (IS-905),2002-027A,2026-07-20T17:36:21.915072,1.00271576,.00034949,6.8362,69.3914,49.0610,306.9325,0,U,27438,999,5169,0,.89E-6,0
GALAXY 3C (G-3C),2002-030A,2026-07-20T19:31:16.112352,1.00271318,.00017871,3.8191,77.5444,29.1516,29.8585,0,U,27445,999,4683,0,-.155E-5,0
INTELSAT 906 (IS-906),2002-041A,2026-07-20T18:27:21.567168,1.00271023,.00034389,5.8840,72.5031,30.0569,176.9758,0,U,27513,999,8736,0,.9E-7,0
GALAXY 13 (HORIZONS-1),2003-044A,2026-07-20T17:32:52.249920,1.00273766,.0002088,1.5027,83.4259,40.2105,288.0824,0,U,27954,999,4690,0,.131E-5,0
INTELSAT 10-02,2004-022A,2026-07-20T19:58:06.038112,1.00272527,.00001809,0.0550,255.2491,301.0996,40.7723,0,U,28358,999,8089,0,-.11E-6,0
DIRECTV 8,2005-019A,2026-07-20T15:59:05.804160,1.00272774,.00031345,0.0181,67.0316,57.5153,294.6071,0,U,28659,999,7740,0,0,0
GALAXY 28 (G-28),2005-022A,2026-07-20T19:58:38.871840,1.00272149,.00023558,3.3820,78.5159,36.5724,96.0766,0,U,28702,999,5231,0,-.203E-5,0
GALAXY 16 (G-16),2006-023A,2026-07-20T21:12:47.040192,1.00271667,.00027387,0.0252,136.5735,343.8353,37.4236,0,U,29236,999,7331,0,-.127E-5,0
DIRECTV 9S,2006-043A,2026-07-20T16:04:12.813600,1.00271745,.00051353,2.5051,80.5002,33.8014,323.9867,0,U,29494,999,5171,0,-.116E-5,0
GALAXY 17 (G-17),2007-016B,2026-07-20T21:16:46.656768,1.00273457,.00034653,3.0544,79.4779,34.1394,59.2101,0,U,31307,999,7014,0,-.208E-5,0
INTELSAT 11 (IS-11),2007-044B,2026-07-20T19:51:59.124960,0.99053126,.00044681,3.6509,78.2615,99.1900,37.0204,0,U,32253,999,6878,0,-.238E-5,0
HORIZONS-2,2007-063B,2026-07-20T21:20:01.346208,1.00272476,.00036612,2.6869,80.2146,19.7504,84.8958,0,U,32388,999,6815,0,-.255E-5,0
DIRECTV 11,2008-013A,2026-07-20T21:12:39.551904,1.00271196,.00000996,0.0031,222.3695,209.2691,85.9806,0,U,32729,999,4593,0,-.126E-5,0
GALAXY 18 (G-18),2008-024A,2026-07-20T20:15:04.699296,1.00273975,.00029598,0.0093,20.6973,100.1422,358.5326,0,U,32951,999,4619,0,.25E-6,0
GALAXY 19 (G-19),2008-045A,2026-07-20T21:13:16.993344,1.00271480,.00026105,0.0643,254.2131,236.6090,29.1428,0,U,33376,999,6524,0,-.139E-5,0
FM-5,2009-034A,2026-07-20T21:16:24.192768,1.00271876,.00009644,0.0434,255.1191,122.7104,153.7531,0,U,35493,999,4698,0,-.2E-5,0
INTELSAT 14 (IS-14),2009-064A,2026-07-20T20:14:38.723136,1.00271917,.00025528,0.0179,49.4627,72.8186,74.9853,0,U,36097,999,6094,0,-.274E-5,0
INTELSAT 15 (IS-15),2009-067A,2026-07-20T18:39:58.529664,1.00272390,.0002294,0.0176,52.8679,65.1597,185.6596,0,U,36106,999,4156,0,-.186E-5,0
DIRECTV 12,2009-075A,2026-07-20T21:11:39.648192,1.00272153,.00002467,0.0300,198.3127,13.1716,302.3558,0,U,36131,999,4689,0,-.103E-5,0
INTELSAT 16 (IS-16),2010-006A,2026-07-20T21:19:16.418208,1.00270852,.00026638,0.0190,317.3673,181.1042,43.7883,0,U,36397,999,5999,0,-.245E-5,0
XM-5,2010-053A,2026-07-20T17:42:21.340800,1.00270619,.00011265,0.0642,264.9611,320.3625,223.5743,0,U,37185,999,5782,0,-.23E-6,0
INTELSAT 17 (IS-17),2010-065B,2026-07-20T21:59:47.353056,1.00272873,.00025755,0.0121,98.1193,34.8751,201.6393,0,U,37238,999,5358,0,-.2E-7,0
INTELSAT 28 (IS-28),2011-016A,2026-07-20T22:49:35.118624,1.00271490,.00039355,1.8914,82.2146,42.5078,124.6817,0,U,37392,999,5362,0,-.226E-5,0
INTELSAT 18 (IS-18),2011-056A,2026-07-20T20:49:41.755296,1.00271176,.00019358,0.0224,288.7330,196.8722,305.4420,0,U,37834,999,5414,0,.52E-6,0
INTELSAT 22 (IS-22),2012-011A,2026-07-20T22:25:48.501696,1.00272115,.00020455,0.0057,17.3870,124.9513,204.9141,0,U,38098,999,752,0,-.59E-6,0
INTELSAT 19 (IS-19),2012-030A,2026-07-20T20:45:42.136992,1.00272817,.00030882,0.0172,43.5893,75.2460,297.2108,0,U,38356,999,5078,0,-.57E-6,0
INTELSAT 20 (IS-20),2012-043A,2026-07-20T22:00:32.281056,1.00271607,.00014513,0.0156,78.6851,105.9822,152.6505,0,U,38740,999,5108,0,-.24E-6,0
INTELSAT 21 (IS-21),2012-045A,2026-07-20T21:24:30.915072,1.00271455,.00018108,0.0402,248.0035,241.3346,72.4535,0,U,38749,999,5086,0,-.285E-5,0
